index,storeName,placeId,address,category,phone,googleUrl,ratingText,latitude,longitude,stars,numberOfReviews
1,Felix Cafe,ChIJYyHClxr61y0RI9lYOSXDodQ,Jl. Wisma Permai I No.167,Kafe,"",https://www.google.com/maps/place/Felix+Cafe/data=!4m7!3m6!1s0x2dd7fa1a97c22163:0xd4a1c3253958d923!8m2!3d-7.2733092!4d112.7971724!16s%2Fg%2F11b6s02bq_!19sChIJYyHClxr61y0RI9lYOSXDodQ?authuser=0&hl=id&rclk=1,"4,5 bintang 4 Ulasan",-7.2733092,112.7971724,4.5,4
2,De Mandailing Cafe & Eatery,ChIJPbj4Mkb61y0RjOMEdXaSRlo,,Kafe,"",https://www.google.com/maps/place/De+Mandailing+Cafe+%26+Eatery/data=!4m7!3m6!1s0x2dd7fa4632f8b83d:0x5a4692767504e38c!8m2!3d-7.2831208!4d112.7767691!16s%2Fg%2F11b697ct43!19sChIJPbj4Mkb61y0RjOMEdXaSRlo?authuser=0&hl=id&rclk=1,"4,6 bintang 2.399 Ulasan",-7.2831208,112.7767691,4.6,2.399
3,Its milk Point Surabaya,ChIJq100tF761y0RmcUlkfa2eEU,jalan Wisma Permai tengah blok 9 JJ 37,Kafe,"",https://www.google.com/maps/place/Its+milk+Point+Surabaya/data=!4m7!3m6!1s0x2dd7fa5eb4345dab:0x4578b6f69125c599!8m2!3d-7.2754284!4d112.7883254!16s%2Fg%2F11hbntg884!19sChIJq100tF761y0RmcUlkfa2eEU?authuser=0&hl=id&rclk=1,"4,6 bintang 25 Ulasan",-7.2754284,112.7883254,4.6,25
4,Communal Coffee & Eatery,ChIJD_sbwDn61y0RdaSb8mkKB6c,,Kedai Kopi,"",https://www.google.com/maps/place/Communal+Coffee+%26+Eatery/data=!4m7!3m6!1s0x2dd7fa39c01bfb0f:0xa7070a69f29ba475!8m2!3d-7.282058!4d112.776332!16s%2Fg%2F11bc95zhd1!19sChIJD_sbwDn61y0RdaSb8mkKB6c?authuser=0&hl=id&rclk=1,"4,5 bintang 1.404 Ulasan",-7.282058,112.776332,4.5,1.404
5,Kedai d'playa,ChIJof2snKP71y0RyxVfA4W7CA8,Jl. Kejawan Putih Tambak No.70 B,Kafe,"",https://www.google.com/maps/place/Kedai+d%27playa/data=!4m7!3m6!1s0x2dd7fba39cacfda1:0xf08bb85035f15cb!8m2!3d-7.28039!4d112.802475!16s%2Fg%2F11f5vdlpj9!19sChIJof2snKP71y0RyxVfA4W7CA8?authuser=0&hl=id&rclk=1,"5,0 bintang 1 Ulasan",-7.28039,112.802475,5,1
6,Eskopi Indonesia - Mulyosari,ChIJGaE3MGr71y0RmW-cmtvZvBg,Jl. Raya Mulyosari No.338,Kedai Kopi,"",https://www.google.com/maps/place/Eskopi+Indonesia+-+Mulyosari/data=!4m7!3m6!1s0x2dd7fb6a3037a119:0x18bcd9db9a9c6f99!8m2!3d-7.2698304!4d112.7965047!16s%2Fg%2F11lckdrxhj!19sChIJGaE3MGr71y0RmW-cmtvZvBg?authuser=0&hl=id&rclk=1,"4,4 bintang 59 Ulasan",-7.2698304,112.7965047,4.4,59
7,LOT #1 Coffee Bar,ChIJgYB-AQD71y0RLqJ0cOFNG4M,"Mapan, @Clubhouse Grand Peninsula, Jl. Sutorejo Barat",Kafe,"",https://www.google.com/maps/place/LOT+%231+Coffee+Bar/data=!4m7!3m6!1s0x2dd7fb00017e8081:0x831b4de17074a22e!8m2!3d-7.2707183!4d112.7908659!16s%2Fg%2F11vqxj30ww!19sChIJgYB-AQD71y0RLqJ0cOFNG4M?authuser=0&hl=id&rclk=1,"4,4 bintang 67 Ulasan",-7.2707183,112.7908659,4.4,67
8,Dante Coffee,ChIJfznYSCP61y0RUNIlRpKCONc,"PQGJ+3Q3, Jl. Dharmahusada Indah Timur",Kedai Kopi,"",https://www.google.com/maps/place/Dante+Coffee/data=!4m7!3m6!1s0x2dd7fa2348d8397f:0xd73882924625d250!8m2!3d-7.2748711!4d112.7819256!16s%2Fg%2F1v6_dtkk!19sChIJfznYSCP61y0RUNIlRpKCONc?authuser=0&hl=id&rclk=1,"5,0 bintang 2 Ulasan",-7.2748711,112.7819256,5,2
9,H+N Coffee,ChIJ29R-32r71y0RHwhGCWfnUDQ,Jl. Kejawan Gebang No.23,Kedai Kopi,"",https://www.google.com/maps/place/H%2BN+Coffee/data=!4m7!3m6!1s0x2dd7fb6adf7ed4db:0x3450e7670946081f!8m2!3d-7.2855343!4d112.8014487!16s%2Fg%2F11l3p2ymz7!19sChIJ29R-32r71y0RHwhGCWfnUDQ?authuser=0&hl=id&rclk=1,"4,9 bintang 24 Ulasan",-7.2855343,112.8014487,4.9,24
10,HaHa Cafe mulyosari,ChIJVR-fBB361y0RdgF8dNgahOg,"Ruko Central Park, AA.2 ) - Sebelah KFC, Jl. Raya Mulyosari",Kafe,"",https://www.google.com/maps/place/HaHa+Cafe+mulyosari/data=!4m7!3m6!1s0x2dd7fa1d049f1f55:0xe8841ad8747c0176!8m2!3d-7.2660219!4d112.7961642!16s%2Fg%2F11gfmcx4dz!19sChIJVR-fBB361y0RdgF8dNgahOg?authuser=0&hl=id&rclk=1,"4,5 bintang 20 Ulasan",-7.2660219,112.7961642,4.5,20
11,The Localist Coffee and Bistro Surabaya,ChIJ4V2fcEb61y0R7gOkG6JrR4E,,Kafe,"",https://www.google.com/maps/place/The+Localist+Coffee+and+Bistro+Surabaya/data=!4m7!3m6!1s0x2dd7fa46709f5de1:0x81476ba21ba403ee!8m2!3d-7.2900085!4d112.7770857!16s%2Fg%2F11b7w30tb_!19sChIJ4V2fcEb61y0R7gOkG6JrR4E?authuser=0&hl=id&rclk=1,"4,3 bintang 642 Ulasan",-7.2900085,112.7770857,4.3,642
12,Excelso,ChIJ2fXVTiP61y0RBkvtS_Ydojw,Jl. Dharmahusada Indah Timur I Blok M No.37,Kafe,"",https://www.google.com/maps/place/Excelso/data=!4m7!3m6!1s0x2dd7fa234ed5f5d9:0x3ca21df64bed4b06!8m2!3d-7.2744494!4d112.7822385!16s%2Fg%2F1hc3gt_ck!19sChIJ2fXVTiP61y0RBkvtS_Ydojw?authuser=0&hl=id&rclk=1,"4,5 bintang 98 Ulasan",-7.2744494,112.7822385,4.5,98
13,Warkop Casper Surabaya,ChIJK1lvj-H71y0RzWQjNvirD5Y,"PQGQ+2XF, Jl. Wisma Permai Tengah I",Kafe,"",https://www.google.com/maps/place/Warkop+Casper+Surabaya/data=!4m7!3m6!1s0x2dd7fbe18f6f592b:0x960fabf8362364cd!8m2!3d-7.2749367!4d112.7899063!16s%2Fg%2F11fmw_y54d!19sChIJK1lvj-H71y0RzWQjNvirD5Y?authuser=0&hl=id&rclk=1,"4,7 bintang 34 Ulasan",-7.2749367,112.7899063,4.7,34
14,SAS Cafe N Resto,ChIJETSpNBv61y0R6zHDlL1jtT4,Jl. Bhaskara Sawah No.30,Kafe,"",https://www.google.com/maps/place/SAS+Cafe+N+Resto/data=!4m7!3m6!1s0x2dd7fa1b34a93411:0x3eb563bd94c331eb!8m2!3d-7.2703801!4d112.7986469!16s%2Fg%2F11g_yml87!19sChIJETSpNBv61y0R6zHDlL1jtT4?authuser=0&hl=id&rclk=1,"4,2 bintang 3.185 Ulasan",-7.2703801,112.7986469,4.2,3.185
15,Moutou Cafe,ChIJz5jBIAn61y0R52lMSCBYAx0,"East Coast Center, Jalan Kejawan Putih Mutiara",Kedai Kopi,"",https://www.google.com/maps/place/Moutou+Cafe/data=!4m7!3m6!1s0x2dd7fa0920c198cf:0x1d035820484c69e7!8m2!3d-7.2770328!4d112.8056027!16s%2Fg%2F11b6pthrb7!19sChIJz5jBIAn61y0R52lMSCBYAx0?authuser=0&hl=id&rclk=1,"",-7.2770328,112.8056027,"",""
16,BnD Cafe,ChIJE2AMtQn71y0RHtD7Y6gjF2A,,Kafe,"",https://www.google.com/maps/place/BnD+Cafe/data=!4m7!3m6!1s0x2dd7fb09b50c6013:0x601723a863fbd01e!8m2!3d-7.304145!4d112.7944034!16s%2Fg%2F11j94q6nsw!19sChIJE2AMtQn71y0RHtD7Y6gjF2A?authuser=0&hl=id&rclk=1,"4,7 bintang 381 Ulasan",-7.304145,112.7944034,4.7,381
17,Bogel Cafe,ChIJt5Ah9ln61y0RanF9Ivc0ig4,"MQXF+VP4, Jl. Semolowaru",Kafe,"",https://www.google.com/maps/place/Bogel+Cafe/data=!4m7!3m6!1s0x2dd7fa59f62190b7:0xe8a34f7227d716a!8m2!3d-7.3003671!4d112.7743371!16s%2Fg%2F11b6cjjtnh!19sChIJt5Ah9ln61y0RanF9Ivc0ig4?authuser=0&hl=id&rclk=1,"4,7 bintang 3 Ulasan",-7.3003671,112.7743371,4.7,3
18,Kafé Asa - Galaxy Mall 3,ChIJNd1FBnr71y0RSWENaQT_UoY,PQFJ+P6R,Kafe,"",https://www.google.com/maps/place/Kaf%C3%A9+Asa+-+Galaxy+Mall+3/data=!4m7!3m6!1s0x2dd7fb7a0645dd35:0x8652ff04690d6149!8m2!3d-7.2756465!4d112.7805198!16s%2Fg%2F11hz_86tv9!19sChIJNd1FBnr71y0RSWENaQT_UoY?authuser=0&hl=id&rclk=1,"4,9 bintang 27 Ulasan",-7.2756465,112.7805198,4.9,27
19,Dante Cafe,ChIJGZnuIAn61y0RS-wsf2kpoIg,"East Coast Center, Jalan Kejawan Putih Mutiara",Kafe,"",https://www.google.com/maps/place/Dante+Cafe/data=!4m7!3m6!1s0x2dd7fa0920ee9919:0x88a029697f2cec4b!8m2!3d-7.276268!4d112.805833!16s%2Fg%2F11b6p2c9yp!19sChIJGZnuIAn61y0RS-wsf2kpoIg?authuser=0&hl=id&rclk=1,"",-7.276268,112.805833,"",""
20,Starbucks - Pakuwon City Mall,ChIJb5yBPQn61y0RF2RWcHTQLxc,,Kedai Kopi,"",https://www.google.com/maps/place/Starbucks+-+Pakuwon+City+Mall/data=!4m7!3m6!1s0x2dd7fa093d819c6f:0x172fd07470566417!8m2!3d-7.277085!4d112.8060448!16s%2Fg%2F1pzxxmk_c!19sChIJb5yBPQn61y0RF2RWcHTQLxc?authuser=0&hl=id&rclk=1,"4,6 bintang 818 Ulasan",-7.277085,112.8060448,4.6,818
21,Ingat Kopi - Mulyosari,ChIJVdWiKkH71y0RfeEDjeuFpqU,Jl. Raya Mulyosari No.153B,Stan Kopi,"",https://www.google.com/maps/place/Ingat+Kopi+-+Mulyosari/data=!4m7!3m6!1s0x2dd7fb412aa2d555:0xa5a685eb8d03e17d!8m2!3d-7.2693163!4d112.7966968!16s%2Fg%2F11t7l6fxmt!19sChIJVdWiKkH71y0RfeEDjeuFpqU?authuser=0&hl=id&rclk=1,"5,0 bintang 9 Ulasan",-7.2693163,112.7966968,5,9
22,Point Coffee,ChIJXQL8NwH71y0RL54J-PhNa90,Jl. Raya Mulyosari No.236,Kedai Kopi,"",https://www.google.com/maps/place/Point+Coffee/data=!4m7!3m6!1s0x2dd7fb0137fc025d:0xdd6b4df8f8099e2f!8m2!3d-7.2673015!4d112.7959793!16s%2Fg%2F11j2xdync0!19sChIJXQL8NwH71y0RL54J-PhNa90?authuser=0&hl=id&rclk=1,"5,0 bintang 6 Ulasan",-7.2673015,112.7959793,5,6
23,KAMARE Chill & Space,ChIJk4U3W7b71y0R1_YNKavP-gY,"Ruko San Antonio N1-37, Jl. Kalisari Utara I No.37",Kafe,"",https://www.google.com/maps/place/KAMARE+Chill+%26+Space/data=!4m7!3m6!1s0x2dd7fbb65b378593:0x6facfab290df6d7!8m2!3d-7.2657718!4d112.8048232!16s%2Fg%2F11qqm9rrnp!19sChIJk4U3W7b71y0R1_YNKavP-gY?authuser=0&hl=id&rclk=1,"4,9 bintang 18 Ulasan",-7.2657718,112.8048232,4.9,18
24,Virgin Cafe,ChIJ_QJNHIf71y0Rh8082oZeOEI,Klampis Paris Regency VI No.34 Blok H,Kafe,"",https://www.google.com/maps/place/Virgin+Cafe/data=!4m7!3m6!1s0x2dd7fb871c4d02fd:0x42385e86da3ccd87!8m2!3d-7.2929129!4d112.7836999!16s%2Fg%2F11j01fff66!19sChIJ_QJNHIf71y0Rh8082oZeOEI?authuser=0&hl=id&rclk=1,"4,0 bintang 1 Ulasan",-7.2929129,112.7836999,4,1
25,Kultur Haus,ChIJC4EH9Br71y0RW-nw4MvTw50,"One Avenue - One East Residence, Ground Floor, Unit 1C - 1D, Jl. Raya Kertajaya Indah No.79",Kafe,"",https://www.google.com/maps/place/Kultur+Haus/data=!4m7!3m6!1s0x2dd7fb1af407810b:0x9dc3d3cbe0f0e95b!8m2!3d-7.2802321!4d112.7812098!16s%2Fg%2F11fjxdtxyt!19sChIJC4EH9Br71y0RW-nw4MvTw50?authuser=0&hl=id&rclk=1,"4,5 bintang 807 Ulasan",-7.2802321,112.7812098,4.5,807
26,Titik Terang Kopi,ChIJF6RpDiH71y0Rqs7MPk9P2D0,"Jl. Raya Mulyosari No.111-115, RT.001/RW.04",Kedai Kopi,"",https://www.google.com/maps/place/Titik+Terang+Kopi/data=!4m7!3m6!1s0x2dd7fb210e69a417:0x3dd84f4f3eccceaa!8m2!3d-7.2653514!4d112.7959699!16s%2Fg%2F11j8mpg41m!19sChIJF6RpDiH71y0Rqs7MPk9P2D0?authuser=0&hl=id&rclk=1,"4,7 bintang 81 Ulasan",-7.2653514,112.7959699,4.7,81
27,Warung Rahayu,ChIJLU0FAkf61y0R0zok1DA27io,Jl. Klampis Aji Tengah I No.2,Kafe,"",https://www.google.com/maps/place/Warung+Rahayu/data=!4m7!3m6!1s0x2dd7fa4702054d2d:0x2aee3630d4243ad3!8m2!3d-7.2887208!4d112.777598!16s%2Fg%2F11c38g8s0w!19sChIJLU0FAkf61y0R0zok1DA27io?authuser=0&hl=id&rclk=1,"4,5 bintang 109 Ulasan",-7.2887208,112.777598,4.5,109
28,Kedai Letole,ChIJM8vLpXD71y0Rz_rDmuDUnI8,Jl. Kejawan Gebang Keputih Gg. I No.21,Restoran,"",https://www.google.com/maps/place/Kedai+Letole/data=!4m7!3m6!1s0x2dd7fb70a5cbcb33:0x8f9cd4e09ac3facf!8m2!3d-7.2867791!4d112.8000144!16s%2Fg%2F11h_bqz8_g!19sChIJM8vLpXD71y0Rz_rDmuDUnI8?authuser=0&hl=id&rclk=1,"5,0 bintang 8 Ulasan",-7.2867791,112.8000144,5,8
29,Kafetien 88,ChIJs-biDh361y0Rs5fuTMRrqzg,,Kafe,"",https://www.google.com/maps/place/Kafetien+88/data=!4m7!3m6!1s0x2dd7fa1d0ee2e6b3:0x38ab6bc44cee97b3!8m2!3d-7.266125!4d112.7962801!16s%2Fg%2F11b6bj4vxd!19sChIJs-biDh361y0Rs5fuTMRrqzg?authuser=0&hl=id&rclk=1,"4,5 bintang 868 Ulasan",-7.266125,112.7962801,4.5,868
30,Warung Roda,ChIJh5U1nRX61y0RCMlYN8JvBkY,,Kedai Kopi,"",https://www.google.com/maps/place/Warung+Roda/data=!4m7!3m6!1s0x2dd7fa159d359587:0x46066fc23758c908!8m2!3d-7.2821557!4d112.7874751!16s%2Fg%2F11dfv57fdq!19sChIJh5U1nRX61y0RCMlYN8JvBkY?authuser=0&hl=id&rclk=1,"4,5 bintang 85 Ulasan",-7.2821557,112.7874751,4.5,85
31,Kampung Kopi,ChIJfY9THSf61y0RTJEaoJiYxq4,,Kedai Kopi,"",https://www.google.com/maps/place/Kampung+Kopi/data=!4m7!3m6!1s0x2dd7fa271d538f7d:0xaec69898a01a914c!8m2!3d-7.2674646!4d112.7786545!16s%2Fg%2F11b6_j9xhv!19sChIJfY9THSf61y0RTJEaoJiYxq4?authuser=0&hl=id&rclk=1,"4,3 bintang 101 Ulasan",-7.2674646,112.7786545,4.3,101
32,Giras 71 Mulyorejo,ChIJYWiu_ib61y0RZCX0ZISXEjw,Jl. Mulyorejo No.71,Kafe,"",https://www.google.com/maps/place/Giras+71+Mulyorejo/data=!4m7!3m6!1s0x2dd7fa26feae6861:0x3c12978464f42564!8m2!3d-7.2679218!4d112.7781861!16s%2Fg%2F11g70vw3bq!19sChIJYWiu_ib61y0RZCX0ZISXEjw?authuser=0&hl=id&rclk=1,"4,6 bintang 54 Ulasan",-7.2679218,112.7781861,4.6,54
33,Ryuu Coffee Shop,ChIJH6-77v371y0RQ_ITvykagqk,Jl. Kalisari Utara I,Kedai Kopi,"",https://www.google.com/maps/place/Ryuu+Coffee+Shop/data=!4m7!3m6!1s0x2dd7fbfdeebbaf1f:0xa9821a29bf13f243!8m2!3d-7.2655535!4d112.8044481!16s%2Fg%2F11tjjsvm4c!19sChIJH6-77v371y0RQ_ITvykagqk?authuser=0&hl=id&rclk=1,"4,8 bintang 69 Ulasan",-7.2655535,112.8044481,4.8,69
34,Manna Cafe,ChIJUd9pP1H61y0RYScVz5t9r7k,Jl. Nginden Semolo No.101 kav. 24,Kafe,"",https://www.google.com/maps/place/Manna+Cafe/data=!4m7!3m6!1s0x2dd7fa513f69df51:0xb9af7d9bcf152761!8m2!3d-7.299748!4d112.7715872!16s%2Fg%2F1hm2sc3v7!19sChIJUd9pP1H61y0RYScVz5t9r7k?authuser=0&hl=id&rclk=1,"4,5 bintang 213 Ulasan",-7.299748,112.7715872,4.5,213
35,Warkop Ning Titin,ChIJ2YfqYrX71y0R-H5B5N6c3Wc,,Kedai Kopi,"",https://www.google.com/maps/place/Warkop+Ning+Titin/data=!4m7!3m6!1s0x2dd7fbb562ea87d9:0x67dd9cdee4417ef8!8m2!3d-7.2947264!4d112.8019698!16s%2Fg%2F11hz04zzq6!19sChIJ2YfqYrX71y0R-H5B5N6c3Wc?authuser=0&hl=id&rclk=1,"4,0 bintang 2 Ulasan",-7.2947264,112.8019698,4,2
36,WARKOP 3R,ChIJdQX5iEb61y0RkL04DQ3-U9Q,Jl. Arief Rahman Hakim No.71 C,Kafe,"",https://www.google.com/maps/place/WARKOP+3R/data=!4m7!3m6!1s0x2dd7fa4688f90575:0xd453fe0d0d38bd90!8m2!3d-7.2894872!4d112.777915!16s%2Fg%2F11b6v3_fw5!19sChIJdQX5iEb61y0RkL04DQ3-U9Q?authuser=0&hl=id&rclk=1,"4,0 bintang 5 Ulasan",-7.2894872,112.777915,4,5
37,Acarya Cafe & Resto,ChIJTXN2GH771y0Rx7bsVtO8CoI,Jl. Raya Kertajaya Indah No.95,Restoran,"",https://www.google.com/maps/place/Acarya+Cafe+%26+Resto/data=!4m7!3m6!1s0x2dd7fb7e1876734d:0x820abcd356ecb6c7!8m2!3d-7.2798701!4d112.7837247!16s%2Fg%2F11rsf09117!19sChIJTXN2GH771y0Rx7bsVtO8CoI?authuser=0&hl=id&rclk=1,"5,0 bintang 2 Ulasan",-7.2798701,112.7837247,5,2
38,Aume Cafe,ChIJZ4exbVr71y0RUtfUf34I0UM,Jl. Sutorejo Tengah XIII No.40,Kedai Kopi,"",https://www.google.com/maps/place/Aume+Cafe/data=!4m7!3m6!1s0x2dd7fb5a6db18767:0x43d1087e7fd4d752!8m2!3d-7.265141!4d112.792115!16s%2Fg%2F11f6379vft!19sChIJZ4exbVr71y0RUtfUf34I0UM?authuser=0&hl=id&rclk=1,"5,0 bintang 12 Ulasan",-7.265141,112.792115,5,12
39,Teh Tarik,ChIJq9MTgTv61y0RNF042crpzUk,Jl. Manyar Tegal No.84,Kafe,"",https://www.google.com/maps/place/Teh+Tarik/data=!4m7!3m6!1s0x2dd7fa3b8113d3ab:0x49cde9cad9385d34!8m2!3d-7.277797!4d112.7806047!16s%2Fg%2F11b6h_ckbr!19sChIJq9MTgTv61y0RNF042crpzUk?authuser=0&hl=id&rclk=1,"4,0 bintang 8 Ulasan",-7.277797,112.7806047,4,8
40,Kopte Mulyosari,ChIJURV-niH51y0RUw6x96yyyqg,Jl. Raya Mulyosari No.122,Kedai Kopi,"",https://www.google.com/maps/place/Kopte+Mulyosari/data=!4m7!3m6!1s0x2dd7f9219e7e1551:0xa8cab2acf7b10e53!8m2!3d-7.2639053!4d112.7955201!16s%2Fg%2F11q3l5ycts!19sChIJURV-niH51y0RUw6x96yyyqg?authuser=0&hl=id&rclk=1,"3,9 bintang 37 Ulasan",-7.2639053,112.7955201,3.9,37
41,Kedai Ori San Antonio,ChIJgRjyGOj71y0RybPBNcwk7Xo,"Pakuwon City, Ruko San Antonio Blok N 1 No.136-138",Kafe,"",https://www.google.com/maps/place/Kedai+Ori+San+Antonio/data=!4m7!3m6!1s0x2dd7fbe818f21881:0x7aed24cc35c1b3c9!8m2!3d-7.2650994!4d112.8062369!16s%2Fg%2F11gs63sq7k!19sChIJgRjyGOj71y0RybPBNcwk7Xo?authuser=0&hl=id&rclk=1,"4,5 bintang 507 Ulasan",-7.2650994,112.8062369,4.5,507
42,Shalom Cafe,ChIJsYEmIQn61y0RAymQCiBrNig,"East Coast Center, Jalan Kejawan Putih Mutiara",Rumah Makan,"",https://www.google.com/maps/place/Shalom+Cafe/data=!4m7!3m6!1s0x2dd7fa09212681b1:0x28366b200a902903!8m2!3d-7.276348!4d112.805769!16s%2Fg%2F11b6qlqczb!19sChIJsYEmIQn61y0RAymQCiBrNig?authuser=0&hl=id&rclk=1,"",-7.276348,112.805769,"",""
43,Café Airlangga,ChIJpWBu7qr71y0RQcv9Q9fWOvQ,"Kampus C Universitas Airlangga, Universitas Airlangga (Dukuh Sutorejo)",Kafe,"",https://www.google.com/maps/place/Caf%C3%A9+Airlangga/data=!4m7!3m6!1s0x2dd7fbaaee6e60a5:0xf43ad6d743fdcb41!8m2!3d-7.2685051!4d112.7850729!16s%2Fg%2F11j0mltvmh!19sChIJpWBu7qr71y0RQcv9Q9fWOvQ?authuser=0&hl=id&rclk=1,"4,7 bintang 22 Ulasan",-7.2685051,112.7850729,4.7,22
44,Kedai Soeroboyo,ChIJPY4JGgb51y0R0hbLJUbhumI,Jl. Mulyorejo Utara No.117,Kafe,"",https://www.google.com/maps/place/Kedai+Soeroboyo/data=!4m7!3m6!1s0x2dd7f9061a098e3d:0x62bae14625cb16d2!8m2!3d-7.2641051!4d112.7813286!16s%2Fg%2F11ghp_1ylc!19sChIJPY4JGgb51y0R0hbLJUbhumI?authuser=0&hl=id&rclk=1,"4,6 bintang 24 Ulasan",-7.2641051,112.7813286,4.6,24
45,Warung Selera,ChIJYbak7XH61y0RCCWRWsVk3i0,"PQ6X+4X3, Jl. Keputih Utara Gg. Mawar",Kedai Kopi,"",https://www.google.com/maps/place/Warung+Selera/data=!4m7!3m6!1s0x2dd7fa71eda4b661:0x2dde64c55a912508!8m2!3d-7.2897433!4d112.7999167!16s%2Fg%2F11b6r_p2ts!19sChIJYbak7XH61y0RCCWRWsVk3i0?authuser=0&hl=id&rclk=1,"4,7 bintang 3 Ulasan",-7.2897433,112.7999167,4.7,3
46,Ost Coffee MERR,ChIJ03UOL9f51y0RQT7KnwSacRo,,Kafe,"",https://www.google.com/maps/place/Ost+Coffee+MERR/data=!4m7!3m6!1s0x2dd7f9d72f0e75d3:0x1a719a049fca3e41!8m2!3d-7.2630327!4d112.7822432!16s%2Fg%2F11hdjgzvm3!19sChIJ03UOL9f51y0RQT7KnwSacRo?authuser=0&hl=id&rclk=1,"4,6 bintang 612 Ulasan",-7.2630327,112.7822432,4.6,612
47,Barokah Cafe,ChIJ3a2sEnT71y0RxG6Kveh6aT8,Jl. Keputih Tegal Timur No.20,Restoran,"",https://www.google.com/maps/place/Barokah+Cafe/data=!4m7!3m6!1s0x2dd7fb7412acaddd:0x3f697ae8bd8a6ec4!8m2!3d-7.2913978!4d112.8029611!16s%2Fg%2F11hfgd8rsh!19sChIJ3a2sEnT71y0RxG6Kveh6aT8?authuser=0&hl=id&rclk=1,"5,0 bintang 1 Ulasan",-7.2913978,112.8029611,5,1
48,Lumer Plus,ChIJGc7vAa_51y0RzEJiRevF1lk,Jl. Dharma Husada Utara I No.34,Kafe,"",https://www.google.com/maps/place/Lumer+Plus/data=!4m7!3m6!1s0x2dd7f9af01efce19:0x59d6c5eb456242cc!8m2!3d-7.2649946!4d112.7723119!16s%2Fg%2F11h0kc8s97!19sChIJGc7vAa_51y0RzEJiRevF1lk?authuser=0&hl=id&rclk=1,"4,2 bintang 1.629 Ulasan",-7.2649946,112.7723119,4.2,1.629
49,Cafe Giras 57,ChIJoR2rCPT51y0RkCKAVUByk34,"no., Jl. Labansari No.139",Kedai Kopi,"",https://www.google.com/maps/place/Cafe+Giras+57/data=!4m7!3m6!1s0x2dd7f9f408ab1da1:0x7e93724055802290!8m2!3d-7.2598118!4d112.7919427!16s%2Fg%2F11bwyxpyyt!19sChIJoR2rCPT51y0RkCKAVUByk34?authuser=0&hl=id&rclk=1,"4,3 bintang 12 Ulasan",-7.2598118,112.7919427,4.3,12
50,Kedai ORI Manyar,ChIJqc4EmE_71y0RK4SripuuUCg,Jl. Manyar Tirtoyoso No.90,Kafe,"",https://www.google.com/maps/place/Kedai+ORI+Manyar/data=!4m7!3m6!1s0x2dd7fb4f9804cea9:0x2850ae9b8aab842b!8m2!3d-7.2893462!4d112.770359!16s%2Fg%2F11skn8lshb!19sChIJqc4EmE_71y0RK4SripuuUCg?authuser=0&hl=id&rclk=1,"4,4 bintang 471 Ulasan",-7.2893462,112.770359,4.4,471
51,Boncafe Manyar,ChIJE1JFXzL61y0RLFoPxl4n2aE,,Kafe,"",https://www.google.com/maps/place/Boncafe+Manyar/data=!4m7!3m6!1s0x2dd7fa325f455213:0xa1d9275ec60f5a2c!8m2!3d-7.2772915!4d112.765996!16s%2Fg%2F1tf4_hbg!19sChIJE1JFXzL61y0RLFoPxl4n2aE?authuser=0&hl=id&rclk=1,"4,7 bintang 6.685 Ulasan",-7.2772915,112.765996,4.7,6.685
52,Kaffe Books,ChIJafiIFTz71y0RmgBcS-2bazo,"Jl, Jl. Sutorejo Prima Utara II No.1",Kedai Kopi,"",https://www.google.com/maps/place/Kaffe+Books/data=!4m7!3m6!1s0x2dd7fb3c1588f869:0x3a6b9bed4b5c009a!8m2!3d-7.260711!4d112.7945916!16s%2Fg%2F11fhzh07f6!19sChIJafiIFTz71y0RmgBcS-2bazo?authuser=0&hl=id&rclk=1,"4,7 bintang 44 Ulasan",-7.260711,112.7945916,4.7,44
53,Excelso - SUB MERR,ChIJG8TdfvH61y0RN_4ypzDaKKI,,Kafe,"",https://www.google.com/maps/place/Excelso+-+SUB+MERR/data=!4m7!3m6!1s0x2dd7faf17eddc41b:0xa228da30a732fe37!8m2!3d-7.3125194!4d112.7804585!16s%2Fg%2F11f4l24cqz!19sChIJG8TdfvH61y0RN_4ypzDaKKI?authuser=0&hl=id&rclk=1,"4,6 bintang 2.198 Ulasan",-7.3125194,112.7804585,4.6,2.198
54,Yummy Yougourt Cafe,ChIJI8yWIAn61y0Rd7ibt4m4eWs,"East Coast Center, Jalan Kejawan Putih Mutiara",Rumah Makan,"",https://www.google.com/maps/place/Yummy+Yougourt+Cafe/data=!4m7!3m6!1s0x2dd7fa092096cc23:0x6b79b889b79bb877!8m2!3d-7.276221!4d112.805825!16s%2Fg%2F11b6q8zc26!19sChIJI8yWIAn61y0Rd7ibt4m4eWs?authuser=0&hl=id&rclk=1,"",-7.276221,112.805825,"",""
55,Andzero,ChIJucpXV0b71y0R5XKCKB2Nt10,Jl. Nginden Intan Raya No.39,Kafe,"",https://www.google.com/maps/place/Andzero/data=!4m7!3m6!1s0x2dd7fb465757cab9:0x5db78d1d288272e5!8m2!3d-7.3045468!4d112.768486!16s%2Fg%2F11v007w6jf!19sChIJucpXV0b71y0R5XKCKB2Nt10?authuser=0&hl=id&rclk=1,"4,8 bintang 281 Ulasan",-7.3045468,112.768486,4.8,281
56,Kafe YOK,ChIJVwjInOf51y0R-35F1IDI3Fg,Jl. Raya Mulyosari No.32c,Kafe,"",https://www.google.com/maps/place/Kafe+YOK/data=!4m7!3m6!1s0x2dd7f9e79cc80857:0x58dcc880d4457efb!8m2!3d-7.2594157!4d112.7953459!16s%2Fg%2F11h87yqhq_!19sChIJVwjInOf51y0R-35F1IDI3Fg?authuser=0&hl=id&rclk=1,"4,0 bintang 5 Ulasan",-7.2594157,112.7953459,4,5
57,Warkop NUR ALIM,ChIJSYEv3Yr51y0RD6sdPwNv3KQ,Jl. Mulyorejo No.184,Kedai Kopi,"",https://www.google.com/maps/place/Warkop+NUR+ALIM/data=!4m7!3m6!1s0x2dd7f98add2f8149:0xa4dc6f033f1dab0f!8m2!3d-7.262743!4d112.7853777!16s%2Fg%2F11gf8fq12r!19sChIJSYEv3Yr51y0RD6sdPwNv3KQ?authuser=0&hl=id&rclk=1,"4,3 bintang 3 Ulasan",-7.262743,112.7853777,4.3,3
58,The Molla Cafe,ChIJf1xazZj71y0RzegApzZjRdg,Jl. Mojoarum II No.47,Restoran,"",https://www.google.com/maps/place/The+Molla+Cafe/data=!4m7!3m6!1s0x2dd7fb98cd5a5c7f:0xd8456336a700e8cd!8m2!3d-7.267091!4d112.7749125!16s%2Fg%2F11frqzd31h!19sChIJf1xazZj71y0RzegApzZjRdg?authuser=0&hl=id&rclk=1,"5,0 bintang 1 Ulasan",-7.267091,112.7749125,5,1
59,Xie Xie Boba Keputih,ChIJUfLIZdz71y0RQpevihgRKTk,Jl. Kejawan Gebang No.16,Bubble Tea,"",https://www.google.com/maps/place/Xie+Xie+Boba+Keputih/data=!4m7!3m6!1s0x2dd7fbdc65c8f251:0x392911188aaf9742!8m2!3d-7.2862899!4d112.8013194!16s%2Fg%2F11qphk2y54!19sChIJUfLIZdz71y0RQpevihgRKTk?authuser=0&hl=id&rclk=1,"",-7.2862899,112.8013194,"",""
60,Avere cafe,ChIJ6c8BeaX71y0RiEsKuU9mPSE,Jl. Ngagel Jaya Barat No.52,Kafe,"",https://www.google.com/maps/place/Avere+cafe/data=!4m7!3m6!1s0x2dd7fba57901cfe9:0x213d664fb90a4b88!8m2!3d-7.2922301!4d112.7515374!16s%2Fg%2F11rhwf6m4y!19sChIJ6c8BeaX71y0RiEsKuU9mPSE?authuser=0&hl=id&rclk=1,"4,4 bintang 409 Ulasan",-7.2922301,112.7515374,4.4,409
61,Salman Caffe/coffee Black,ChIJ48ssVfD51y0RubeAaS61dMI,,Kedai Kopi,"",https://www.google.com/maps/place/Salman+Caffe%2Fcoffee+Black/data=!4m7!3m6!1s0x2dd7f9f0552ccbe3:0xc274b52e6980b7b9!8m2!3d-7.2564891!4d112.7956432!16s%2Fg%2F11dym6jr2w!19sChIJ48ssVfD51y0RubeAaS61dMI?authuser=0&hl=id&rclk=1,"4,3 bintang 103 Ulasan",-7.2564891,112.7956432,4.3,103
62,Andzero,ChIJucpXV0b71y0R5XKCKB2Nt10,Jl. Nginden Intan Raya No.39,Kafe,"",https://www.google.com/maps/place/Andzero/data=!4m7!3m6!1s0x2dd7fb465757cab9:0x5db78d1d288272e5!8m2!3d-7.3045468!4d112.768486!16s%2Fg%2F11v007w6jf!19sChIJucpXV0b71y0R5XKCKB2Nt10?authuser=0&hl=id&rclk=1,"4,8 bintang 281 Ulasan",-7.3045468,112.768486,4.8,281
63,Kafe YOK,ChIJVwjInOf51y0R-35F1IDI3Fg,Jl. Raya Mulyosari No.32c,Kafe,"",https://www.google.com/maps/place/Kafe+YOK/data=!4m7!3m6!1s0x2dd7f9e79cc80857:0x58dcc880d4457efb!8m2!3d-7.2594157!4d112.7953459!16s%2Fg%2F11h87yqhq_!19sChIJVwjInOf51y0R-35F1IDI3Fg?authuser=0&hl=id&rclk=1,"4,0 bintang 5 Ulasan",-7.2594157,112.7953459,4,5
64,Warkop NUR ALIM,ChIJSYEv3Yr51y0RD6sdPwNv3KQ,Jl. Mulyorejo No.184,Kedai Kopi,"",https://www.google.com/maps/place/Warkop+NUR+ALIM/data=!4m7!3m6!1s0x2dd7f98add2f8149:0xa4dc6f033f1dab0f!8m2!3d-7.262743!4d112.7853777!16s%2Fg%2F11gf8fq12r!19sChIJSYEv3Yr51y0RD6sdPwNv3KQ?authuser=0&hl=id&rclk=1,"4,3 bintang 3 Ulasan",-7.262743,112.7853777,4.3,3
65,The Molla Cafe,ChIJf1xazZj71y0RzegApzZjRdg,Jl. Mojoarum II No.47,Restoran,"",https://www.google.com/maps/place/The+Molla+Cafe/data=!4m7!3m6!1s0x2dd7fb98cd5a5c7f:0xd8456336a700e8cd!8m2!3d-7.267091!4d112.7749125!16s%2Fg%2F11frqzd31h!19sChIJf1xazZj71y0RzegApzZjRdg?authuser=0&hl=id&rclk=1,"5,0 bintang 1 Ulasan",-7.267091,112.7749125,5,1
66,Xie Xie Boba Keputih,ChIJUfLIZdz71y0RQpevihgRKTk,Jl. Kejawan Gebang No.16,Bubble Tea,"",https://www.google.com/maps/place/Xie+Xie+Boba+Keputih/data=!4m7!3m6!1s0x2dd7fbdc65c8f251:0x392911188aaf9742!8m2!3d-7.2862899!4d112.8013194!16s%2Fg%2F11qphk2y54!19sChIJUfLIZdz71y0RQpevihgRKTk?authuser=0&hl=id&rclk=1,"",-7.2862899,112.8013194,"",""
67,Avere cafe,ChIJ6c8BeaX71y0RiEsKuU9mPSE,Jl. Ngagel Jaya Barat No.52,Kafe,"",https://www.google.com/maps/place/Avere+cafe/data=!4m7!3m6!1s0x2dd7fba57901cfe9:0x213d664fb90a4b88!8m2!3d-7.2922301!4d112.7515374!16s%2Fg%2F11rhwf6m4y!19sChIJ6c8BeaX71y0RiEsKuU9mPSE?authuser=0&hl=id&rclk=1,"4,4 bintang 409 Ulasan",-7.2922301,112.7515374,4.4,409
68,Dexter Cafe,ChIJ04GoZNL51y0RnVPPHp4TAF8,,Kafe,"",https://www.google.com/maps/place/Dexter+Cafe/data=!4m7!3m6!1s0x2dd7f9d264a881d3:0x5f00139e1ecf539d!8m2!3d-7.2592005!4d112.8080027!16s%2Fg%2F11g15fsfb_!19sChIJ04GoZNL51y0RnVPPHp4TAF8?authuser=0&hl=id&rclk=1,"4,5 bintang 104 Ulasan",-7.2592005,112.8080027,4.5,104
69,Kava coffee,ChIJq7OU9Fn51y0R9qMJKeObiiY,"Jl. Kalijudan Indah VI No.21, RT.002/RW.01",Kedai Kopi,"",https://www.google.com/maps/place/Kava+coffee/data=!4m7!3m6!1s0x2dd7f959f494b3ab:0x268a9be32909a3f6!8m2!3d-7.262655!4d112.7780432!16s%2Fg%2F11h57h6z4r!19sChIJq7OU9Fn51y0R9qMJKeObiiY?authuser=0&hl=id&rclk=1,"5,0 bintang 9 Ulasan",-7.262655,112.7780432,5,9
70,EL Corner Cafe & Resto,ChIJyTqe36r71y0RjyHzkei4fxw,Jl. Raya Pandugo No.70,Kafe,"",https://www.google.com/maps/place/EL+Corner+Cafe+%26+Resto/data=!4m7!3m6!1s0x2dd7fbaadf9e3ac9:0x1c7fb8e891f3218f!8m2!3d-7.321646!4d112.7868171!16s%2Fg%2F11l2klkd8y!19sChIJyTqe36r71y0RjyHzkei4fxw?authuser=0&hl=id&rclk=1,"4,7 bintang 31 Ulasan",-7.321646,112.7868171,4.7,31
71,Cafe DW - San Antonio,ChIJgyQtwWP71y0RgnF3dwtJdV0,Jalan San Antonio No.58 N 1,Restoran,"",https://www.google.com/maps/place/Cafe+DW+-+San+Antonio/data=!4m7!3m6!1s0x2dd7fb63c12d2483:0x5d75490b77777182!8m2!3d-7.2655202!4d112.8047839!16s%2Fg%2F11q3tbtnkw!19sChIJgyQtwWP71y0RgnF3dwtJdV0?authuser=0&hl=id&rclk=1,"4,2 bintang 32 Ulasan",-7.2655202,112.8047839,4.2,32
72,Seblak Resek Keputih,ChIJCwAj2r371y0RxKCSXyLtT_Y,Jl. Arief Rahman Hakim No.53,Kafe,Jl. Arief Rahman Hakim No.53,https://www.google.com/maps/place/Seblak+Resek+Keputih/data=!4m7!3m6!1s0x2dd7fbbdda23000b:0xf64fed225f92a0c4!8m2!3d-7.2899771!4d112.7989025!16s%2Fg%2F11gxmvxn1_!19sChIJCwAj2r371y0RxKCSXyLtT_Y?authuser=0&hl=id&rclk=1,"3,0 bintang 1 Ulasan",-7.2899771,112.7989025,3,1
73,Republika Cafe & Resto,ChIJF1Jn4z_71y0R1VSUJ72iFRo,,Kafe,"",https://www.google.com/maps/place/Republika+Cafe+%26+Resto/data=!4m7!3m6!1s0x2dd7fb3fe3675217:0x1a15a2bd279454d5!8m2!3d-7.315972!4d112.780663!16s%2Fg%2F11k6tgr2_6!19sChIJF1Jn4z_71y0R1VSUJ72iFRo?authuser=0&hl=id&rclk=1,"4,3 bintang 1.856 Ulasan",-7.315972,112.780663,4.3,1.856
74,Roti Bakar petrock,ChIJe1CQnUL71y0RjR_1DhnI03g,Jl. Gebang Lor No.65,Kafe,"",https://www.google.com/maps/place/Roti+Bakar+petrock/data=!4m7!3m6!1s0x2dd7fb429d90507b:0x78d3c8190ef51f8d!8m2!3d-7.280869!4d112.7878996!16s%2Fg%2F11f5vccg_t!19sChIJe1CQnUL71y0RjR_1DhnI03g?authuser=0&hl=id&rclk=1,"4,8 bintang 8 Ulasan",-7.280869,112.7878996,4.8,8
75,Upper Room Cafe & Resto,ChIJwVCGeP_61y0R8LDb1OUTeuM,,Kafe,"",https://www.google.com/maps/place/Upper+Room+Cafe+%26+Resto/data=!4m7!3m6!1s0x2dd7faff788650c1:0xe37a13e5d4dbb0f0!8m2!3d-7.3065735!4d112.7657903!16s%2Fg%2F11g9dt89lj!19sChIJwVCGeP_61y0R8LDb1OUTeuM?authuser=0&hl=id&rclk=1,"4,5 bintang 223 Ulasan",-7.3065735,112.7657903,4.5,223
76,Cafe,ChIJ1wZrrb371y0RDtnyhYgLBtU,Jl. Dr. Ir. H. Soekarno No.232,Bar,"",https://www.google.com/maps/place/Cafe/data=!4m7!3m6!1s0x2dd7fbbdad6b06d7:0xd5060b8885f2d90e!8m2!3d-7.30132!4d112.7813887!16s%2Fg%2F11jt16k1l2!19sChIJ1wZrrb371y0RDtnyhYgLBtU?authuser=0&hl=id&rclk=1,"",-7.30132,112.7813887,"",""
77,Kosaku Coffee Lab,ChIJA02Ag2H71y0Rrz5NaQIXo2s,,Kafe,"",https://www.google.com/maps/place/Kosaku+Coffee+Lab/data=!4m7!3m6!1s0x2dd7fb6183804d03:0x6ba31702694d3eaf!8m2!3d-7.2784189!4d112.7649477!16s%2Fg%2F11jzmp5kdt!19sChIJA02Ag2H71y0Rrz5NaQIXo2s?authuser=0&hl=id&rclk=1,"4,6 bintang 331 Ulasan",-7.2784189,112.7649477,4.6,331
78,Mbahe Cafe,ChIJUX5DLXD51y0RCXTv3woXEk0,Jl. Kalijudan No.177,Kedai Kopi,"",https://www.google.com/maps/place/Mbahe+Cafe/data=!4m7!3m6!1s0x2dd7f9702d437e51:0x4d12170adfef7409!8m2!3d-7.2551518!4d112.7809682!16s%2Fg%2F11qr3v44yx!19sChIJUX5DLXD51y0RCXTv3woXEk0?authuser=0&hl=id&rclk=1,"4,6 bintang 244 Ulasan",-7.2551518,112.7809682,4.6,244
79,Kafe 27 Kenjeran,ChIJkZwxV-z51y0RLCHKb7-eVaU,,Kafe,"",https://www.google.com/maps/place/Kafe+27+Kenjeran/data=!4m7!3m6!1s0x2dd7f9ec57319c91:0xa5559ebf6fca212c!8m2!3d-7.251303!4d112.78893!16s%2Fg%2F11rhq25yjp!19sChIJkZwxV-z51y0RLCHKb7-eVaU?authuser=0&hl=id&rclk=1,"4,6 bintang 700 Ulasan",-7.251303,112.78893,4.6,700
80,Keena,ChIJMeMZSuf71y0RABUcz-eqAeI,Jl. Srikana No.144,Kafe,"",https://www.google.com/maps/place/Keena/data=!4m7!3m6!1s0x2dd7fbe74a19e331:0xe201aae7cf1c1500!8m2!3d-7.2744373!4d112.7592752!16s%2Fg%2F11t5y2kgww!19sChIJMeMZSuf71y0RABUcz-eqAeI?authuser=0&hl=id&rclk=1,"4,9 bintang 103 Ulasan",-7.2744373,112.7592752,4.9,103
81,Kopi Kenangan - Ruko Mulyosari,ChIJP3TF7Rz51y0ReEJrfh-MT84,Jl. Raya Mulyosari No.76G,Kedai Kopi,"",https://www.google.com/maps/place/Kopi+Kenangan+-+Ruko+Mulyosari/data=!4m7!3m6!1s0x2dd7f91cedc5743f:0xce4f8c1f7e6b4278!8m2!3d-7.2617851!4d112.7953006!16s%2Fg%2F11jdth4gcc!19sChIJP3TF7Rz51y0ReEJrfh-MT84?authuser=0&hl=id&rclk=1,"4,6 bintang 432 Ulasan",-7.2617851,112.7953006,4.6,432
82,Demandailing Cafe,ChIJF2rBfhT71y0RZcjbW3Ajc2I,,Kafe,"",https://www.google.com/maps/place/Demandailing+Cafe/data=!4m7!3m6!1s0x2dd7fb147ec16a17:0x627323705bdbc865!8m2!3d-7.3225321!4d112.7423232!16s%2Fg%2F11bt_h9mr_!19sChIJF2rBfhT71y0RZcjbW3Ajc2I?authuser=0&hl=id&rclk=1,"4,5 bintang 4.109 Ulasan",-7.3225321,112.7423232,4.5,4.109
83,Cafe & Studio FotoLavender,ChIJif__v_H51y0RZVSvjOiRBHA,Ruko San Antonio N-60 Pakuwon City,Restoran,"",https://www.google.com/maps/place/Cafe+%26+Studio+FotoLavender/data=!4m7!3m6!1s0x2dd7f9f1bfffff89:0x700491e88caf5465!8m2!3d-7.2656797!4d112.8051813!16s%2Fg%2F11cllg9lx8!19sChIJif__v_H51y0RZVSvjOiRBHA?authuser=0&hl=id&rclk=1,"4,3 bintang 3 Ulasan",-7.2656797,112.8051813,4.3,3
84,Ali Muchson Cafe,ChIJjQu53sH61y0RSrbuCWqTiw8,Jl. Pandugo Baru No.V,Kafe,"",https://www.google.com/maps/place/Ali+Muchson+Cafe/data=!4m7!3m6!1s0x2dd7fac1deb90b8d:0xf8b936a09eeb64a!8m2!3d-7.3254753!4d112.7825299!16s%2Fg%2F11d_8s2g6w!19sChIJjQu53sH61y0RSrbuCWqTiw8?authuser=0&hl=id&rclk=1,"5,0 bintang 6 Ulasan",-7.3254753,112.7825299,5,6
85,Warung Burung Hantu,ChIJV42bT4r51y0RkhPE4JMwZTo,,Kafe,"",https://www.google.com/maps/place/Warung+Burung+Hantu/data=!4m7!3m6!1s0x2dd7f98a4f9b8d57:0x3a653093e0c41392!8m2!3d-7.2626842!4d112.7827221!16s%2Fg%2F11gf125bkv!19sChIJV42bT4r51y0RkhPE4JMwZTo?authuser=0&hl=id&rclk=1,"4,4 bintang 1.443 Ulasan",-7.2626842,112.7827221,4.4,1.443
86,Chick-So Cafe & Resto,ChIJS_CGB6j71y0RNKpfC1NkY2s,Jl. Margorejo Indah No.A702,Kafe,"",https://www.google.com/maps/place/Chick-So+Cafe+%26+Resto/data=!4m7!3m6!1s0x2dd7fba80786f04b:0x6b6364530b5faa34!8m2!3d-7.3173041!4d112.7469475!16s%2Fg%2F11y2sh7y4l!19sChIJS_CGB6j71y0RNKpfC1NkY2s?authuser=0&hl=id&rclk=1,"4,8 bintang 52 Ulasan",-7.3173041,112.7469475,4.8,52
87,Panties Pizza - Klampis Ngasem,ChIJL6W9wEf61y0RZ-iuMUwmYCY,,Kafe,"",https://www.google.com/maps/place/Panties+Pizza+-+Klampis+Ngasem/data=!4m7!3m6!1s0x2dd7fa47c0bda52f:0x2660264c31aee867!8m2!3d-7.2820563!4d112.7744181!16s%2Fg%2F11b7yw1_11!19sChIJL6W9wEf61y0RZ-iuMUwmYCY?authuser=0&hl=id&rclk=1,"4,4 bintang 1.770 Ulasan",-7.2820563,112.7744181,4.4,1.77
88,"Tabletoys Boardgames Library, Cafe, and Store",ChIJqcm5-hz61y0RHR2b_R7JUZw,,Klub permainan papan,"","https://www.google.com/maps/place/Tabletoys+Boardgames+Library,+Cafe,+and+Store/data=!4m7!3m6!1s0x2dd7fa1cfab9c9a9:0x9c51c91efd9b1d1d!8m2!3d-7.2673051!4d112.7963064!16s%2Fg%2F11g6yk165s!19sChIJqcm5-hz61y0RHR2b_R7JUZw?authuser=0&hl=id&rclk=1","4,8 bintang 548 Ulasan",-7.2673051,112.7963064,4.8,548
89,Cocoro Surabaya,ChIJ08PjtvX51y0RBqpIaXpMsTc,Jl. Mulyosari Utara No.06,Kafe,"",https://www.google.com/maps/place/Cocoro+Surabaya/data=!4m7!3m6!1s0x2dd7f9f5b6e3c3d3:0x37b14c7a6948aa06!8m2!3d-7.2620049!4d112.7960531!16s%2Fg%2F11gv1b12h8!19sChIJ08PjtvX51y0RBqpIaXpMsTc?authuser=0&hl=id&rclk=1,"4,8 bintang 89 Ulasan",-7.2620049,112.7960531,4.8,89
90,Kopisae Margorejo | Cafe Kekinian dan Resto Surabaya Pusat,ChIJU3Reef_71y0RhuKh6oEzAJ4,Jl. Margorejo Indah No.A-134,Kedai Kopi,"",https://www.google.com/maps/place/Kopisae+Margorejo+%7C+Cafe+Kekinian+dan+Resto+Surabaya+Pusat/data=!4m7!3m6!1s0x2dd7fbff795e7453:0x9e003381eaa1e286!8m2!3d-7.318308!4d112.744134!16s%2Fg%2F11j01rp7l5!19sChIJU3Reef_71y0RhuKh6oEzAJ4?authuser=0&hl=id&rclk=1,"4,7 bintang 4.162 Ulasan",-7.318308,112.744134,4.7,4.162
91,KUNOKINI Cafe & Resto,ChIJzat_iqv71y0RDAziJxyKjCo,,Kafe,"",https://www.google.com/maps/place/KUNOKINI+Cafe+%26+Resto/data=!4m7!3m6!1s0x2dd7fbab8a7fabcd:0x2a8c8a1c27e20c0c!8m2!3d-7.3113882!4d112.7580768!16s%2Fg%2F11gy2j1c4q!19sChIJzat_iqv71y0RDAziJxyKjCo?authuser=0&hl=id&rclk=1,"4,4 bintang 3.240 Ulasan",-7.3113882,112.7580768,4.4,3.24
92,Raja Rawon,ChIJE3zEVEH61y0RGWzw8p12hwQ,"PQ6J+384, Jl. Dr. Ir. H. Soekarno",Kafe,"",https://www.google.com/maps/place/Raja+Rawon/data=!4m7!3m6!1s0x2dd7fa4154c47c13:0x487769df2f06c19!8m2!3d-7.289864!4d112.7808269!16s%2Fg%2F11b6s_jyhn!19sChIJE3zEVEH61y0RGWzw8p12hwQ?authuser=0&hl=id&rclk=1,"3,3 bintang 3 Ulasan",-7.289864,112.7808269,3.3,3
93,The Blue Cafe,ChIJSXRUGmf71y0RNBa2avKLmxs,"Pd. Tjandra Indah, Jl. Raya Taman Asri, Ruko Palm Square, Blok TF 8",Kafe,"",https://www.google.com/maps/place/The+Blue+Cafe/data=!4m7!3m6!1s0x2dd7fb671a547449:0x1b9b8bf26ab61634!8m2!3d-7.342937!4d112.7704456!16s%2Fg%2F11shj96z66!19sChIJSXRUGmf71y0RNBa2avKLmxs?authuser=0&hl=id&rclk=1,"4,9 bintang 15 Ulasan",-7.342937,112.7704456,4.9,15
94,TryMe Cafe,ChIJk12tK1j71y0RMm_BP-HxElM,Jl. Gubeng Jaya Langgar No.22b,Restoran,"",https://www.google.com/maps/place/TryMe+Cafe/data=!4m7!3m6!1s0x2dd7fb582bad5d93:0x5312f1e13fc16f32!8m2!3d-7.2728452!4d112.7532715!16s%2Fg%2F11fpfq36tw!19sChIJk12tK1j71y0RMm_BP-HxElM?authuser=0&hl=id&rclk=1,"5,0 bintang 7 Ulasan",-7.2728452,112.7532715,5,7
95,Cafe Gloria,ChIJGWONahz71y0RTc60_nNH-Ew,"Apartement Metropolis, Jl. Raya Tenggilis No.127",Kafe,"",https://www.google.com/maps/place/Cafe+Gloria/data=!4m7!3m6!1s0x2dd7fb1c6a8d6319:0x4cf84773feb4ce4d!8m2!3d-7.3200965!4d112.7583292!16s%2Fg%2F11b6c5nsg9!19sChIJGWONahz71y0RTc60_nNH-Ew?authuser=0&hl=id&rclk=1,"5,0 bintang 1 Ulasan",-7.3200965,112.7583292,5,1
96,BONCAFE RAYA GUBENG,ChIJHdhrVsj71y0RNwXC8yrtS_c,,Kafe,"",https://www.google.com/maps/place/BONCAFE+RAYA+GUBENG/data=!4m7!3m6!1s0x2dd7fbc8566bd81d:0xf74bed2af3c20537!8m2!3d-7.2718687!4d112.7483661!16s%2Fg%2F1thm5yn7!19sChIJHdhrVsj71y0RNwXC8yrtS_c?authuser=0&hl=id&rclk=1,"4,7 bintang 6.582 Ulasan",-7.2718687,112.7483661,4.7,6.582
97,Be waffle,ChIJLePh8GT51y0RjokLChCisbY,,Kafe,"",https://www.google.com/maps/place/Be+waffle/data=!4m7!3m6!1s0x2dd7f964f0e1e32d:0xb6b1a2100a0b898e!8m2!3d-7.258093!4d112.750537!16s%2Fg%2F11bc744dsn!19sChIJLePh8GT51y0RjokLChCisbY?authuser=0&hl=id&rclk=1,"4,3 bintang 2.055 Ulasan",-7.258093,112.750537,4.3,2.055
98,Triple S Neighborhood,ChIJswZx5c371y0RjL4oex5YS7Y,Jl. Raya Jemursari No.325,Kafe,"",https://www.google.com/maps/place/Triple+S+Neighborhood/data=!4m7!3m6!1s0x2dd7fbcde57106b3:0xb64b581e7b28be8c!8m2!3d-7.3105236!4d112.7578263!16s%2Fg%2F11r_q5hqp_!19sChIJswZx5c371y0RjL4oex5YS7Y?authuser=0&hl=id&rclk=1,"4,7 bintang 562 Ulasan",-7.3105236,112.7578263,4.7,562
99,Kedai STMJ & Kopi Mat Kodak,ChIJlfn957751y0Rt-ySnn6d2E4,Jl. Ploso Baru No.20,Kedai Kopi,"",https://www.google.com/maps/place/Kedai+STMJ+%26+Kopi+Mat+Kodak/data=!4m7!3m6!1s0x2dd7f9bee7fdf995:0x4ed89d7e9e92ecb7!8m2!3d-7.2574087!4d112.7719201!16s%2Fg%2F11ghq5yx_c!19sChIJlfn957751y0Rt-ySnn6d2E4?authuser=0&hl=id&rclk=1,"4,9 bintang 12 Ulasan",-7.2574087,112.7719201,4.9,12
100,Babeh St,ChIJx0UE32T51y0R8ic3Ona80BA,,Kafe,"",https://www.google.com/maps/place/Babeh+St/data=!4m7!3m6!1s0x2dd7f964df0445c7:0x10d0bc763a3727f2!8m2!3d-7.2600719!4d112.7498993!16s%2Fg%2F11bxf19c58!19sChIJx0UE32T51y0R8ic3Ona80BA?authuser=0&hl=id&rclk=1,"4,2 bintang 1.489 Ulasan",-7.2600719,112.7498993,4.2,1.489
101,Raja Rawon,ChIJE3zEVEH61y0RGWzw8p12hwQ,"PQ6J+384, Jl. Dr. Ir. H. Soekarno",Kafe,"",https://www.google.com/maps/place/Raja+Rawon/data=!4m7!3m6!1s0x2dd7fa4154c47c13:0x487769df2f06c19!8m2!3d-7.289864!4d112.7808269!16s%2Fg%2F11b6s_jyhn!19sChIJE3zEVEH61y0RGWzw8p12hwQ?authuser=0&hl=id&rclk=1,"3,3 bintang 3 Ulasan",-7.289864,112.7808269,3.3,3
102,The Blue Cafe,ChIJSXRUGmf71y0RNBa2avKLmxs,"Pd. Tjandra Indah, Jl. Raya Taman Asri, Ruko Palm Square, Blok TF 8",Kafe,"",https://www.google.com/maps/place/The+Blue+Cafe/data=!4m7!3m6!1s0x2dd7fb671a547449:0x1b9b8bf26ab61634!8m2!3d-7.342937!4d112.7704456!16s%2Fg%2F11shj96z66!19sChIJSXRUGmf71y0RNBa2avKLmxs?authuser=0&hl=id&rclk=1,"4,9 bintang 15 Ulasan",-7.342937,112.7704456,4.9,15
103,TryMe Cafe,ChIJk12tK1j71y0RMm_BP-HxElM,Jl. Gubeng Jaya Langgar No.22b,Restoran,"",https://www.google.com/maps/place/TryMe+Cafe/data=!4m7!3m6!1s0x2dd7fb582bad5d93:0x5312f1e13fc16f32!8m2!3d-7.2728452!4d112.7532715!16s%2Fg%2F11fpfq36tw!19sChIJk12tK1j71y0RMm_BP-HxElM?authuser=0&hl=id&rclk=1,"5,0 bintang 7 Ulasan",-7.2728452,112.7532715,5,7
104,Cafe Gloria,ChIJGWONahz71y0RTc60_nNH-Ew,"Apartement Metropolis, Jl. Raya Tenggilis No.127",Kafe,"",https://www.google.com/maps/place/Cafe+Gloria/data=!4m7!3m6!1s0x2dd7fb1c6a8d6319:0x4cf84773feb4ce4d!8m2!3d-7.3200965!4d112.7583292!16s%2Fg%2F11b6c5nsg9!19sChIJGWONahz71y0RTc60_nNH-Ew?authuser=0&hl=id&rclk=1,"5,0 bintang 1 Ulasan",-7.3200965,112.7583292,5,1
105,BONCAFE RAYA GUBENG,ChIJHdhrVsj71y0RNwXC8yrtS_c,,Kafe,"",https://www.google.com/maps/place/BONCAFE+RAYA+GUBENG/data=!4m7!3m6!1s0x2dd7fbc8566bd81d:0xf74bed2af3c20537!8m2!3d-7.2718687!4d112.7483661!16s%2Fg%2F1thm5yn7!19sChIJHdhrVsj71y0RNwXC8yrtS_c?authuser=0&hl=id&rclk=1,"4,7 bintang 6.582 Ulasan",-7.2718687,112.7483661,4.7,6.582
106,Be waffle,ChIJLePh8GT51y0RjokLChCisbY,,Kafe,"",https://www.google.com/maps/place/Be+waffle/data=!4m7!3m6!1s0x2dd7f964f0e1e32d:0xb6b1a2100a0b898e!8m2!3d-7.258093!4d112.750537!16s%2Fg%2F11bc744dsn!19sChIJLePh8GT51y0RjokLChCisbY?authuser=0&hl=id&rclk=1,"4,3 bintang 2.055 Ulasan",-7.258093,112.750537,4.3,2.055
107,Triple S Neighborhood,ChIJswZx5c371y0RjL4oex5YS7Y,Jl. Raya Jemursari No.325,Kafe,"",https://www.google.com/maps/place/Triple+S+Neighborhood/data=!4m7!3m6!1s0x2dd7fbcde57106b3:0xb64b581e7b28be8c!8m2!3d-7.3105236!4d112.7578263!16s%2Fg%2F11r_q5hqp_!19sChIJswZx5c371y0RjL4oex5YS7Y?authuser=0&hl=id&rclk=1,"4,7 bintang 562 Ulasan",-7.3105236,112.7578263,4.7,562
108,Kedai STMJ & Kopi Mat Kodak,ChIJlfn957751y0Rt-ySnn6d2E4,Jl. Ploso Baru No.20,Kedai Kopi,"",https://www.google.com/maps/place/Kedai+STMJ+%26+Kopi+Mat+Kodak/data=!4m7!3m6!1s0x2dd7f9bee7fdf995:0x4ed89d7e9e92ecb7!8m2!3d-7.2574087!4d112.7719201!16s%2Fg%2F11ghq5yx_c!19sChIJlfn957751y0Rt-ySnn6d2E4?authuser=0&hl=id&rclk=1,"4,9 bintang 12 Ulasan",-7.2574087,112.7719201,4.9,12
109,Babeh St,ChIJx0UE32T51y0R8ic3Ona80BA,,Kafe,"",https://www.google.com/maps/place/Babeh+St/data=!4m7!3m6!1s0x2dd7f964df0445c7:0x10d0bc763a3727f2!8m2!3d-7.2600719!4d112.7498993!16s%2Fg%2F11bxf19c58!19sChIJx0UE32T51y0R8ic3Ona80BA?authuser=0&hl=id&rclk=1,"4,2 bintang 1.489 Ulasan",-7.2600719,112.7498993,4.2,1.489
110,Devina Cafe,ChIJ2TrNedz71y0RArGnwAjeMh4,Jl. Irian Bar. No.7-11,Kafe,"",https://www.google.com/maps/place/Devina+Cafe/data=!4m7!3m6!1s0x2dd7fbdc79cd3ad9:0x1e32de08c0a7b102!8m2!3d-7.2737708!4d112.744817!16s%2Fg%2F11f_3qpn00!19sChIJ2TrNedz71y0RArGnwAjeMh4?authuser=0&hl=id&rclk=1,"4,6 bintang 14 Ulasan",-7.2737708,112.744817,4.6,14
111,Fame Cafe N Resto,ChIJSSu16UP71y0RT-YeD1V5O1o,Jl. Jemur Andayani No.1-C,Kafe,"",https://www.google.com/maps/place/Fame+Cafe+N+Resto/data=!4m7!3m6!1s0x2dd7fb43e9b52b49:0x5a3b79550f1ee64f!8m2!3d-7.3283769!4d112.7395136!16s%2Fg%2F1hc2jy804!19sChIJSSu16UP71y0RT-YeD1V5O1o?authuser=0&hl=id&rclk=1,"5,0 bintang 1 Ulasan",-7.3283769,112.7395136,5,1
112,Steak Hut,ChIJU00o_jP61y0Rg7WmdkRBR5o,"Jl. Manyar Kertoarjo No.80 003, RT.003/RW.06",Kafe,"",https://www.google.com/maps/place/Steak+Hut/data=!4m7!3m6!1s0x2dd7fa33fe284d53:0x9a47414476a6b583!8m2!3d-7.2805581!4d112.7688904!16s%2Fg%2F1jkxfg17t!19sChIJU00o_jP61y0Rg7WmdkRBR5o?authuser=0&hl=id&rclk=1,"4,6 bintang 3.756 Ulasan",-7.2805581,112.7688904,4.6,3.756
113,Bobal x Ow My Cafe,ChIJb3G95PP71y0RiFR2ac155N8,"Jl. Urip Sumoharjo No.57, RT.003/RW.01",Kafe,"",https://www.google.com/maps/place/Bobal+x+Ow+My+Cafe/data=!4m7!3m6!1s0x2dd7fbf3e4bd716f:0xdfe479cd69765488!8m2!3d-7.2765669!4d112.741758!16s%2Fg%2F11j00lj5mq!19sChIJb3G95PP71y0RiFR2ac155N8?authuser=0&hl=id&rclk=1,"4,6 bintang 13 Ulasan",-7.2765669,112.741758,4.6,13
114,Jan Penak Cafe,ChIJzSouo5j71y0R-2yddNiQDW0,Jl. Jagir Wonokromo Wetan No.22b,Kafe,"",https://www.google.com/maps/place/Jan+Penak+Cafe/data=!4m7!3m6!1s0x2dd7fb98a32e2acd:0x6d0d90d8749d6cfb!8m2!3d-7.3013247!4d112.7383921!16s%2Fg%2F11c6sw3rn4!19sChIJzSouo5j71y0R-2yddNiQDW0?authuser=0&hl=id&rclk=1,"4,7 bintang 36 Ulasan",-7.3013247,112.7383921,4.7,36
115,Carpentier Kitchen,ChIJnQ8dVur71y0Rs03hD9iRFzU,Jl. Untung Suropati No.83,Kafe,"",https://www.google.com/maps/place/Carpentier+Kitchen/data=!4m7!3m6!1s0x2dd7fbea561d0f9d:0x351791d80fe14db3!8m2!3d-7.2850075!4d112.7362677!16s%2Fg%2F11bw5wkt42!19sChIJnQ8dVur71y0Rs03hD9iRFzU?authuser=0&hl=id&rclk=1,"4,6 bintang 2.486 Ulasan",-7.2850075,112.7362677,4.6,2.486
116,Dante Cafe,ChIJvQVO7GD51y0RU-70fIqDJA4,"Tunjungan Plaza, Lantai 4 Plaza West No. 67 & 81-82, JL. Basuki Rahmat, No. 8-12",Kafe,"",https://www.google.com/maps/place/Dante+Cafe/data=!4m7!3m6!1s0x2dd7f960ec4e05bd:0xe24838a7cf4ee53!8m2!3d-7.263692!4d112.740773!16s%2Fg%2F11b6df9h07!19sChIJvQVO7GD51y0RU-70fIqDJA4?authuser=0&hl=id&rclk=1,"5,0 bintang 1 Ulasan",-7.263692,112.740773,5,1
117,Michael Tj Gelato,ChIJ80Wm-h371y0RP0DKv3Hgt2k,"Jalan Raya Tenggilis Mejoyo Blok F No. 5, Tenggilis Mejoyo",Kafe,"",https://www.google.com/maps/place/Michael+Tj+Gelato/data=!4m7!3m6!1s0x2dd7fb1dfaa645f3:0x69b7e071bfca403f!8m2!3d-7.32063!4d112.762242!16s%2Fg%2F11clrptnyk!19sChIJ80Wm-h371y0RP0DKv3Hgt2k?authuser=0&hl=id&rclk=1,"4,5 bintang 1.378 Ulasan",-7.32063,112.762242,4.5,1.378
118,️ Kollabora | The Best Thematic Cafe in Indonesia,ChIJaSxCoyX91y0RUj-XkjKji-o,Jl. Raya Kupang Indah No.51,Kedai Kopi,"",https://www.google.com/maps/place/%EF%B8%8F+Kollabora+%7C+The+Best+Thematic+Cafe+in+Indonesia/data=!4m7!3m6!1s0x2dd7fd25a3422c69:0xea8ba33292973f52!8m2!3d-7.2778482!4d112.7079269!16s%2Fg%2F11fs2xnxbv!19sChIJaSxCoyX91y0RUj-XkjKji-o?authuser=0&hl=id&rclk=1,"4,7 bintang 1.384 Ulasan",-7.2778482,112.7079269,4.7,1.384
119,Nongki Cafe,ChIJYc0kT0v71y0RETskckjSrRg,"",Kedai Kopi,"",https://www.google.com/maps/place/Nongki+Cafe/data=!4m7!3m6!1s0x2dd7fb4b4f24cd61:0x18add24872243b11!8m2!3d-7.3404373!4d112.7682491!16s%2Fg%2F11ry3hfk39!19sChIJYc0kT0v71y0RETskckjSrRg?authuser=0&hl=id&rclk=1,"4,4 bintang 377 Ulasan",-7.3404373,112.7682491,4.4,377
120,Cafe Isen,ChIJr0xBcnb51y0RoAqlLUnkS00,"lobby lt 1 RS Husada Utama, Jl. Prof. DR. Moestopo No.31-35",Kafe,"",https://www.google.com/maps/place/Cafe+Isen/data=!4m7!3m6!1s0x2dd7f97672414caf:0x4d4be4492da50aa0!8m2!3d-7.2648203!4d112.7561326!16s%2Fg%2F11gh95r8__!19sChIJr0xBcnb51y0RoAqlLUnkS00?authuser=0&hl=id&rclk=1,"4,9 bintang 38 Ulasan",-7.2648203,112.7561326,4.9,38
